0 FENGYUN 1C DEB
1 31274U 99025BNG 13281.22337997  .00001395  00000-0  11582-2 0  9750
2 31274 099.1986 196.1595 0263480 098.6459 056.7783 13.75473894330071
0 FENGYUN 1C DEB
1 31274U 99025BNG 13283.25888315  .00001563  00000-0  12929-2 0  9764
2 31274 099.1988 198.1259 0263541 093.2951 055.9947 13.75484015330359
0 FENGYUN 1C DEB
1 31274U 99025BNG 13286.24153543  .00001591  00000-0  13153-2 0  9776
2 31274 099.1990 201.0071 0263615 085.4562 065.3230 13.75492074330760
0 FENGYUN 1C DEB
1 31274U 99025BNG 13288.56376306  .00002122  00000-0  17430-2 0  9781
2 31274 099.1994 203.2503 0263665 079.3543 044.4717 13.75501984331078
0 FENGYUN 1C DEB
1 31274U 99025BNG 13290.73212141  .00002127  00000-0  17464-2 0  9792
2 31274 099.1992 205.3455 0263712 073.6563 341.7710 13.75511989331372
0 FENGYUN 1C DEB
1 31274U 99025BNG 13292.98775728  .00002551  00000-0  20879-2 0  9803
2 31274 099.1992 207.5241 0263733 067.7099 351.3593 13.75520136331684
0 FENGYUN 1C DEB
1 31274U 99025BNG 13295.02586929  .00003056  00000-0  24940-2 0  9819
2 31274 099.1989 209.4935 0263783 062.3584 003.8510 13.75528986331966
